[
    {
        "Altitude(m)": 703331.566767202,
        "Argument of Periapsis(deg)": 0.0011390121186627068,
        "Eccentricity": 0.0,
        "Inclination(deg)": 45.0,
        "Latitude(deg)": 23.290036608146902,
        "Longitude(deg)": 25.300271485541774,
        "Mean Anomaly(deg)": 33.8806216647481,
        "RAAN(deg)": 99.99892480585419,
        "Satellite Name": "Constellation 1 442",
        "Satellite Number": 442,
        "Semi-Major Axis(m)": 7083131.272910544,
        "Time(s)": 19
    },
    {
        "Altitude(m)": 703335.912254391,
        "Argument of Periapsis(deg)": 0.0011989601249081123,
        "Eccentricity": 0.0,
        "Inclination(deg)": 45.0,
        "Latitude(deg)": 23.329039202142866,
        "Longitude(deg)": 25.34694288046276,
        "Mean Anomaly(deg)": 33.941322804997995,
        "RAAN(deg)": 99.99886821668862,
        "Satellite Name": "Constellation 1 442",
        "Satellite Number": 442,
        "Semi-Major Axis(m)": 7083131.272910544,
        "Time(s)": 20
    },
    {
        "Altitude(m)": 703340.2688463472,
        "Argument of Periapsis(deg)": 0.001258908131153518,
        "Eccentricity": 0.0,
        "Inclination(deg)": 45.0,
        "Latitude(deg)": 23.368025149772617,
        "Longitude(deg)": 25.393643919558492,
        "Mean Anomaly(deg)": 34.00202394524789,
        "RAAN(deg)": 99.99881162752304,
        "Satellite Name": "Constellation 1 442",
        "Satellite Number": 442,
        "Semi-Major Axis(m)": 7083131.272910544,
        "Time(s)": 21
    },
    {
        "Altitude(m)": 703344.6365076343,
        "Argument of Periapsis(deg)": 0.0013188561373989236,
        "Eccentricity": 0.0,
        "Inclination(deg)": 45.0,
        "Latitude(deg)": 23.406994410543096,
        "Longitude(deg)": 25.44037449486341,
        "Mean Anomaly(deg)": 34.06272508549777,
        "RAAN(deg)": 99.99875503835747,
        "Satellite Name": "Constellation 1 442",
        "Satellite Number": 442,
        "Semi-Major Axis(m)": 7083131.272910544,
        "Time(s)": 22
    },
    {
        "Altitude(m)": 703349.015202769,
        "Argument of Periapsis(deg)": 0.0013788041436443293,
        "Eccentricity": 0.0,
        "Inclination(deg)": 45.0,
        "Latitude(deg)": 23.445946943903675,
        "Longitude(deg)": 25.487135002719473,
        "Mean Anomaly(deg)": 34.12342622574768,
        "RAAN(deg)": 99.99869844919192,
        "Satellite Name": "Constellation 1 442",
        "Satellite Number": 442,
        "Semi-Major Axis(m)": 7083131.272910544,
        "Time(s)": 23
    },
    {
        "Altitude(m)": 703353.4048962239,
        "Argument of Periapsis(deg)": 0.001438752149889735,
        "Eccentricity": 0.0,
        "Inclination(deg)": 45.0,
        "Latitude(deg)": 23.484882709244385,
        "Longitude(deg)": 25.533925335193384,
        "Mean Anomaly(deg)": 34.18412736599758,
        "RAAN(deg)": 99.99864186002634,
        "Satellite Name": "Constellation 1 442",
        "Satellite Number": 442,
        "Semi-Major Axis(m)": 7083131.272910544,
        "Time(s)": 24
    },
    {
        "Altitude(m)": 703357.8055524435,
        "Argument of Periapsis(deg)": 0.0014987001561351404,
        "Eccentricity": 0.0,
        "Inclination(deg)": 45.0,
        "Latitude(deg)": 23.52380166589688,
        "Longitude(deg)": 25.580745552464712,
        "Mean Anomaly(deg)": 34.24482850624748,
        "RAAN(deg)": 99.99858527086077,
        "Satellite Name": "Constellation 1 442",
        "Satellite Number": 442,
        "Semi-Major Axis(m)": 7083131.272910544,
        "Time(s)": 25
    },
    {
        "Altitude(m)": 703362.2171358351,
        "Argument of Periapsis(deg)": 0.001558648162380546,
        "Eccentricity": 0.0,
        "Inclination(deg)": 45.0,
        "Latitude(deg)": 23.562703773134096,
        "Longitude(deg)": 25.6275957147287,
        "Mean Anomaly(deg)": 34.305529646497355,
        "RAAN(deg)": 99.99852868169519,
        "Satellite Name": "Constellation 1 442",
        "Satellite Number": 442,
        "Semi-Major Axis(m)": 7083131.272910544,
        "Time(s)": 26
    },
    {
        "Altitude(m)": 703366.6396107613,
        "Argument of Periapsis(deg)": 0.0016185961686259519,
        "Eccentricity": 0.0,
        "Inclination(deg)": 45.0,
        "Latitude(deg)": 23.60158899017022,
        "Longitude(deg)": 25.67447588219593,
        "Mean Anomaly(deg)": 34.36623078674726,
        "RAAN(deg)": 99.99847209252962,
        "Satellite Name": "Constellation 1 442",
        "Satellite Number": 442,
        "Semi-Major Axis(m)": 7083131.272910544,
        "Time(s)": 27
    },
    {
        "Altitude(m)": 703371.0729415471,
        "Argument of Periapsis(deg)": 0.0016785441748713573,
        "Eccentricity": 0.0,
        "Inclination(deg)": 45.0,
        "Latitude(deg)": 23.640457276160365,
        "Longitude(deg)": 25.72138611509211,
        "Mean Anomaly(deg)": 34.42693192699719,
        "RAAN(deg)": 99.99841550336404,
        "Satellite Name": "Constellation 1 442",
        "Satellite Number": 442,
        "Semi-Major Axis(m)": 7083131.272910544,
        "Time(s)": 28
    },
    {
        "Altitude(m)": 703375.5170924864,
        "Argument of Periapsis(deg)": 0.001738492181116763,
        "Eccentricity": 0.0,
        "Inclination(deg)": 45.0,
        "Latitude(deg)": 23.679308590200677,
        "Longitude(deg)": 25.768326473657897,
        "Mean Anomaly(deg)": 34.48763306724706,
        "RAAN(deg)": 99.99835891419848,
        "Satellite Name": "Constellation 1 442",
        "Satellite Number": 442,
        "Semi-Major Axis(m)": 7083131.272910544,
        "Time(s)": 29
    },
    {
        "Altitude(m)": 703379.9720278329,
        "Argument of Periapsis(deg)": 0.0017984401873621684,
        "Eccentricity": 0.0,
        "Inclination(deg)": 45.0,
        "Latitude(deg)": 23.71814289132782,
        "Longitude(deg)": 25.815296850051574,
        "Mean Anomaly(deg)": 34.54833420749696,
        "RAAN(deg)": 99.99830232503292,
        "Satellite Name": "Constellation 1 442",
        "Satellite Number": 442,
        "Semi-Major Axis(m)": 7083131.272910544,
        "Time(s)": 30
    },
    {
        "Altitude(m)": 703384.4377118014,
        "Argument of Periapsis(deg)": 0.0018583881936075745,
        "Eccentricity": 0.0,
        "Inclination(deg)": 45.0,
        "Latitude(deg)": 23.756960138520032,
        "Longitude(deg)": 25.86229764073727,
        "Mean Anomaly(deg)": 34.60903534774685,
        "RAAN(deg)": 99.99824573586734,
        "Satellite Name": "Constellation 1 442",
        "Satellite Number": 442,
        "Semi-Major Axis(m)": 7083131.272910544,
        "Time(s)": 31
    },
    {
        "Altitude(m)": 703388.9141085746,
        "Argument of Periapsis(deg)": 0.0019183361998529795,
        "Eccentricity": 0.0,
        "Inclination(deg)": 45.0,
        "Latitude(deg)": 23.795760290695366,
        "Longitude(deg)": 25.909328737902058,
        "Mean Anomaly(deg)": 34.66973648799677,
        "RAAN(deg)": 99.99818914670178,
        "Satellite Name": "Constellation 1 442",
        "Satellite Number": 442,
        "Semi-Major Axis(m)": 7083131.272910544,
        "Time(s)": 32
    },
    {
        "Altitude(m)": 703393.4011822956,
        "Argument of Periapsis(deg)": 0.0019782842060983856,
        "Eccentricity": 0.0,
        "Inclination(deg)": 45.0,
        "Latitude(deg)": 23.834543306712575,
        "Longitude(deg)": 25.95639020184413,
        "Mean Anomaly(deg)": 34.73043762824667,
        "RAAN(deg)": 99.9981325575362,
        "Satellite Name": "Constellation 1 442",
        "Satellite Number": 442,
        "Semi-Major Axis(m)": 7083131.272910544,
        "Time(s)": 33
    },
    {
        "Altitude(m)": 703397.8988970668,
        "Argument of Periapsis(deg)": 0.0020382322123437906,
        "Eccentricity": 0.0,
        "Inclination(deg)": 45.0,
        "Latitude(deg)": 23.873309145370893,
        "Longitude(deg)": 26.00348209287553,
        "Mean Anomaly(deg)": 34.791138768496566,
        "RAAN(deg)": 99.99807596837063,
        "Satellite Name": "Constellation 1 442",
        "Satellite Number": 442,
        "Semi-Major Axis(m)": 7083131.272910544,
        "Time(s)": 34
    },
    {
        "Altitude(m)": 703402.4072169681,
        "Argument of Periapsis(deg)": 0.002098180218589197,
        "Eccentricity": 0.0,
        "Inclination(deg)": 45.0,
        "Latitude(deg)": 23.9120577654098,
        "Longitude(deg)": 26.050604471321822,
        "Mean Anomaly(deg)": 34.851839908746456,
        "RAAN(deg)": 99.99801937920508,
        "Satellite Name": "Constellation 1 442",
        "Satellite Number": 442,
        "Semi-Major Axis(m)": 7083131.272910544,
        "Time(s)": 35
    },
    {
        "Altitude(m)": 703406.9261060299,
        "Argument of Periapsis(deg)": 0.002158128224834602,
        "Eccentricity": 0.0,
        "Inclination(deg)": 45.0,
        "Latitude(deg)": 23.95078912550901,
        "Longitude(deg)": 26.097757397522074,
        "Mean Anomaly(deg)": 34.91254104899636,
        "RAAN(deg)": 99.9979627900395,
        "Satellite Name": "Constellation 1 442",
        "Satellite Number": 442,
        "Semi-Major Axis(m)": 7083131.272910544,
        "Time(s)": 36
    },
    {
        "Altitude(m)": 703411.4555282517,
        "Argument of Periapsis(deg)": 0.002218076231080008,
        "Eccentricity": 0.0,
        "Inclination(deg)": 45.0,
        "Latitude(deg)": 23.98950318428798,
        "Longitude(deg)": 26.14494076373128,
        "Mean Anomaly(deg)": 34.97324218924628,
        "RAAN(deg)": 99.99790620087393,
        "Satellite Name": "Constellation 1 442",
        "Satellite Number": 442,
        "Semi-Major Axis(m)": 7083131.272910544,
        "Time(s)": 37
    }
]